{
"type": "FeatureCollection",
"name": "Administrative Core",
"crs": { "type": "name", "properties": { "name": "urn:ogc:def:crs:OGC:1.3:CRS84" } },
"features": [
{ "type": "Feature", "properties": { "id": 2 }, "geometry": { "type": "MultiPolygon", "coordinates": [ [ [ [ 124.222159027262506, 7.354383026213212 ], [ 124.22219486352104, 7.353799966078117 ], [ 124.221562361605251, 7.353691937165157 ], [ 124.220782587812991, 7.353067135988272 ], [ 124.220450367192214, 7.352316636549057 ], [ 124.220401887208851, 7.351440211330397 ], [ 124.22060704843777, 7.350149083085115 ], [ 124.220633468483044, 7.349837826982338 ], [ 124.220244964616569, 7.349750437764554 ], [ 124.219957780041995, 7.349916961457393 ], [ 124.219669216930953, 7.350260559231841 ], [ 124.219748023428878, 7.352066395037983 ], [ 124.219965598788519, 7.353202467718075 ], [ 124.220383745871331, 7.353905716817651 ], [ 124.221328481458315, 7.354517214005174 ], [ 124.221772130882542, 7.354759196890956 ], [ 124.222159027262506, 7.354383026213212 ] ] ] ] } }
]
}
