{
"type": "FeatureCollection",
"name": "Boardwalk and Viewing Deck",
"crs": { "type": "name", "properties": { "name": "urn:ogc:def:crs:OGC:1.3:CRS84" } },
"features": [
{ "type": "Feature", "properties": { "id": null }, "geometry": { "type": "MultiPolygon", "coordinates": [ [ [ [ 124.223506617627535, 7.345181323260504 ], [ 124.224051081014579, 7.34552724516864 ], [ 124.22506984236658, 7.345422183113738 ], [ 124.226077924306551, 7.345126247064018 ], [ 124.225848006848594, 7.344557762995263 ], [ 124.225860461240472, 7.34382790654104 ], [ 124.22525432447604, 7.343886947909277 ], [ 124.225252635792103, 7.344389412356136 ], [ 124.22503980952753, 7.34470534373215 ], [ 124.224211565677038, 7.344797558997299 ], [ 124.223789880923675, 7.344533155865434 ], [ 124.223506617627535, 7.345181323260504 ] ] ] ] } }
]
}
