{
"type": "FeatureCollection",
"name": "Freeport Civic and Commerce Hub",
"crs": { "type": "name", "properties": { "name": "urn:ogc:def:crs:OGC:1.3:CRS84" } },
"features": [
{ "type": "Feature", "properties": { "id": 10 }, "geometry": { "type": "MultiPolygon", "coordinates": [ [ [ [ 124.22068617246417, 7.346417307597721 ], [ 124.220965084460019, 7.346509055248657 ], [ 124.220970426103236, 7.346526544749985 ], [ 124.221232221853882, 7.346538471265885 ], [ 124.221158702674174, 7.346399358180022 ], [ 124.221326471513194, 7.345387890349425 ], [ 124.223085447468762, 7.345634670004058 ], [ 124.223093086439334, 7.345625093731348 ], [ 124.223076041982921, 7.345594687920618 ], [ 124.223362978245106, 7.345400882096859 ], [ 124.223512138616556, 7.345171567803982 ], [ 124.223796040857721, 7.344520898830572 ], [ 124.225182206377838, 7.341881491880169 ], [ 124.226770644742913, 7.340307003642018 ], [ 124.226162087529516, 7.339243492794648 ], [ 124.22604138486696, 7.339067165719792 ], [ 124.226001754554105, 7.339081702505236 ], [ 124.224747237626644, 7.339476475508171 ], [ 124.223463213308875, 7.340369653390908 ], [ 124.222448500496654, 7.341346949101652 ], [ 124.221793906769349, 7.342303598951409 ], [ 124.22129008163779, 7.34389657962047 ], [ 124.221085895960698, 7.343889526904714 ], [ 124.221036100903078, 7.344958681200906 ], [ 124.220869480089704, 7.345956616149341 ], [ 124.22068617246417, 7.346417307597721 ] ] ] ] } }
]
}
