{
"type": "FeatureCollection",
"name": "Future Expansion Area",
"crs": { "type": "name", "properties": { "name": "urn:ogc:def:crs:OGC:1.3:CRS84" } },
"features": [
{ "type": "Feature", "properties": { "id": 2 }, "geometry": { "type": "MultiPolygon", "coordinates": [ [ [ [ 124.221743871678143, 7.354770436256601 ], [ 124.220319415696082, 7.35385938419551 ], [ 124.219992709254356, 7.353204761347765 ], [ 124.219648999006665, 7.350177068294517 ], [ 124.219398114068525, 7.350237622364081 ], [ 124.218589858440055, 7.356220989353996 ], [ 124.218572398561221, 7.357391697884905 ], [ 124.221743871678143, 7.354770436256601 ] ] ] ] } }
]
}
