{
"type": "FeatureCollection",
"name": "Mangrove Ecopark",
"crs": { "type": "name", "properties": { "name": "urn:ogc:def:crs:OGC:1.3:CRS84" } },
"features": [
{ "type": "Feature", "properties": { "id": 5 }, "geometry": { "type": "MultiPolygon", "coordinates": [ [ [ [ 124.221246423096545, 7.346557136258349 ], [ 124.222079713817678, 7.346872976099713 ], [ 124.222366209262717, 7.347197075128693 ], [ 124.222457191172992, 7.347572783548525 ], [ 124.223274860482206, 7.347750998512896 ], [ 124.223764683332817, 7.348092297446742 ], [ 124.224144005595292, 7.349092119297238 ], [ 124.224857831426434, 7.349207025680412 ], [ 124.224927894158142, 7.348381520985747 ], [ 124.224485399028453, 7.348126007528639 ], [ 124.223085763377966, 7.345635974546679 ], [ 124.221331655159403, 7.345392162362703 ], [ 124.221164173504832, 7.346400246975057 ], [ 124.221246423096545, 7.346557136258349 ] ] ] ] } },
{ "type": "Feature", "properties": { "id": 6 }, "geometry": { "type": "MultiPolygon", "coordinates": [ [ [ [ 124.2237802855024, 7.345817401186657 ], [ 124.224228977159044, 7.345678169252894 ], [ 124.224512027262406, 7.346042865391063 ], [ 124.225025048049332, 7.345949964808862 ], [ 124.225555990068514, 7.345967619938646 ], [ 124.226028356503008, 7.34667545036477 ], [ 124.227696744064716, 7.345194610470526 ], [ 124.230254211139282, 7.342889391649715 ], [ 124.228750298427684, 7.342271499173065 ], [ 124.227763316624916, 7.341997189510585 ], [ 124.22706812995618, 7.34311056316406 ], [ 124.226340759228592, 7.342994512080977 ], [ 124.225860604809469, 7.34382621493325 ], [ 124.225852802818295, 7.34456157621527 ], [ 124.226077960198481, 7.345125824162096 ], [ 124.22506984236658, 7.345422183113734 ], [ 124.224050693315078, 7.345526786431295 ], [ 124.223506653521937, 7.345180900358383 ], [ 124.223350428496275, 7.345413024492002 ], [ 124.2237802855024, 7.345817401186657 ] ] ] ] } },
{ "type": "Feature", "properties": { "id": 4 }, "geometry": { "type": "MultiPolygon", "coordinates": [ [ [ [ 124.2195936721386, 7.349275784556683 ], [ 124.219870403234239, 7.349312827696378 ], [ 124.220551213324583, 7.347670503444645 ], [ 124.220558564387417, 7.34726222355415 ], [ 124.220355468161017, 7.347081479765891 ], [ 124.220579699981243, 7.346691549162335 ], [ 124.22085861028755, 7.345979123173339 ], [ 124.221029538741078, 7.344930439947492 ], [ 124.221092027242008, 7.343872582132088 ], [ 124.220909150258962, 7.343775329255815 ], [ 124.220424661745653, 7.343989475979125 ], [ 124.220066719379048, 7.346276302687246 ], [ 124.2195936721386, 7.349275784556683 ] ] ] ] } }
]
}
