{
"type": "FeatureCollection",
"name": "PFEZ Boundaries",
"crs": { "type": "name", "properties": { "name": "urn:ogc:def:crs:OGC:1.3:CRS84" } },
"features": [
{ "type": "Feature", "properties": { "id": null }, "geometry": { "type": "MultiPolygon", "coordinates": [ [ [ [ 124.222188438219419, 7.354403356249112 ], [ 124.223665186807196, 7.354190136910696 ], [ 124.223777285304308, 7.353960355439795 ], [ 124.224443507131951, 7.354052500083422 ], [ 124.224998089360383, 7.347729383643022 ], [ 124.230232690175484, 7.342857863821091 ], [ 124.227691291248078, 7.341917075515595 ], [ 124.226158495830902, 7.339234714633109 ], [ 124.225748320754249, 7.338635073759833 ], [ 124.222680697129491, 7.338480165889488 ], [ 124.221327811477551, 7.339851291800857 ], [ 124.221244225857617, 7.340095305335987 ], [ 124.220819243033063, 7.341398471355629 ], [ 124.218699938656115, 7.355007947473974 ], [ 124.21927377376484, 7.355161115360756 ], [ 124.219360184550354, 7.355377663930916 ], [ 124.218816329263774, 7.356105832151341 ], [ 124.218595894418641, 7.356233649000671 ], [ 124.218493613622286, 7.357438575929359 ], [ 124.222188438219419, 7.354403356249112 ] ] ] ] } }
]
}
