{
"type": "FeatureCollection",
"name": "Planned Unit Development",
"crs": { "type": "name", "properties": { "name": "urn:ogc:def:crs:OGC:1.3:CRS84" } },
"features": [
{ "type": "Feature", "properties": { "id": 6 }, "geometry": { "type": "MultiPolygon", "coordinates": [ [ [ [ 124.223791575293291, 7.344533299208157 ], [ 124.224213015923667, 7.344795551992668 ], [ 124.225044892637257, 7.344705773745615 ], [ 124.225249534197133, 7.344385742465763 ], [ 124.225254468047311, 7.343885256301312 ], [ 124.225860073541142, 7.343827447805273 ], [ 124.226338246464564, 7.342998984834608 ], [ 124.227082014984433, 7.343102793040692 ], [ 124.227786276035459, 7.341962926973532 ], [ 124.227714595509013, 7.341922788343679 ], [ 124.226772970921786, 7.340309756054369 ], [ 124.225185810454136, 7.341879241146254 ], [ 124.224186786961425, 7.343757450287406 ], [ 124.223791575293291, 7.344533299208157 ] ] ] ] } }
]
}
