{
"type": "FeatureCollection",
"name": "Port Operation Zone",
"crs": { "type": "name", "properties": { "name": "urn:ogc:def:crs:OGC:1.3:CRS84" } },
"features": [
{ "type": "Feature", "properties": { "id": 1 }, "geometry": { "type": "MultiPolygon", "coordinates": [ [ [ [ 124.224447217714044, 7.354045024549442 ], [ 124.224877015504831, 7.349222278571934 ], [ 124.224118618291314, 7.349069526582038 ], [ 124.223737573199799, 7.348090003996721 ], [ 124.223248324678991, 7.347741938595383 ], [ 124.222437432916266, 7.347564296962112 ], [ 124.222323828539302, 7.34842019391055 ], [ 124.222014485436688, 7.350295414890887 ], [ 124.220591770253222, 7.350168235585024 ], [ 124.220400164157624, 7.351460510641879 ], [ 124.220455996097485, 7.352330742825479 ], [ 124.220788791083891, 7.353074475820223 ], [ 124.221182009329809, 7.353428048622805 ], [ 124.221561787275419, 7.353698703600729 ], [ 124.222199918184302, 7.353820838754363 ], [ 124.222158452942679, 7.354389792647996 ], [ 124.223664117299407, 7.35418322980896 ], [ 124.223766697765029, 7.353939751966319 ], [ 124.224447217714044, 7.354045024549442 ] ] ] ] } }
]
}
