{
"type": "FeatureCollection",
"name": "Port Support and Commerce Hub",
"crs": { "type": "name", "properties": { "name": "urn:ogc:def:crs:OGC:1.3:CRS84" } },
"features": [
{ "type": "Feature", "properties": { "id": 4 }, "geometry": { "type": "MultiPolygon", "coordinates": [ [ [ [ 124.222015059763748, 7.350288648455582 ], [ 124.22244421044303, 7.347564870346025 ], [ 124.222334044634522, 7.347173908891944 ], [ 124.222032845532624, 7.346862195923229 ], [ 124.221331084709931, 7.346605189129854 ], [ 124.221225444341414, 7.346537897860816 ], [ 124.2209531951478, 7.346528494445462 ], [ 124.220519972948495, 7.349807779755788 ], [ 124.220627839616967, 7.349823720702365 ], [ 124.220618306180754, 7.350177295643907 ], [ 124.222015059763748, 7.350288648455582 ] ] ] ] } }
]
}
