{
"type": "FeatureCollection",
"name": "Roro Passenger Terminal",
"crs": { "type": "name", "properties": { "name": "urn:ogc:def:crs:OGC:1.3:CRS84" } },
"features": [
{ "type": "Feature", "properties": { "id": 7 }, "geometry": { "type": "MultiPolygon", "coordinates": [ [ [ [ 124.224953855734825, 7.348397347223629 ], [ 124.224979931183483, 7.348331402934507 ], [ 124.22514581004387, 7.34846810558826 ], [ 124.225201292731853, 7.348377388924803 ], [ 124.225069875848774, 7.348236786567451 ], [ 124.225088941038393, 7.34793172379635 ], [ 124.224999451956819, 7.347699258052086 ], [ 124.226025024614017, 7.346634278449211 ], [ 124.225562193289065, 7.345974959710158 ], [ 124.22502562233548, 7.345943198376869 ], [ 124.224513175850205, 7.346029332525834 ], [ 124.224223348261049, 7.345664063025569 ], [ 124.223774656615149, 7.34580329495174 ], [ 124.223364557793715, 7.345407404808549 ], [ 124.223075654284216, 7.345594229182264 ], [ 124.22447977007927, 7.348111901312452 ], [ 124.224953855734825, 7.348397347223629 ] ] ] ] } }
]
}
