{
"type": "FeatureCollection",
"name": "Staff Housing Cluster",
"crs": { "type": "name", "properties": { "name": "urn:ogc:def:crs:OGC:1.3:CRS84" } },
"features": [
{ "type": "Feature", "properties": { "id": 8 }, "geometry": { "type": "MultiPolygon", "coordinates": [ [ [ [ 124.220435689495474, 7.343980186458125 ], [ 124.220903392285251, 7.343777823670787 ], [ 124.221090519527948, 7.343865213600982 ], [ 124.221303435536342, 7.343890042524245 ], [ 124.221804446231076, 7.342290008709116 ], [ 124.222487011138327, 7.341325502793835 ], [ 124.223496612154605, 7.340368219627039 ], [ 124.224149078214595, 7.339919107850108 ], [ 124.224773284688695, 7.33948123472469 ], [ 124.225520403403749, 7.339203689610242 ], [ 124.226008603731103, 7.33908143005211 ], [ 124.225785519838766, 7.338653656748823 ], [ 124.223530833242421, 7.338517428494823 ], [ 124.222688140002646, 7.338473393059455 ], [ 124.221345299487069, 7.339818196311486 ], [ 124.220835960126706, 7.341315299478162 ], [ 124.220604838320611, 7.342590600974691 ], [ 124.220435689495474, 7.343980186458125 ] ] ] ] } }
]
}
