{
"type": "FeatureCollection",
"name": "Utilities",
"crs": { "type": "name", "properties": { "name": "urn:ogc:def:crs:OGC:1.3:CRS84" } },
"features": [
{ "type": "Feature", "properties": { "id": 9 }, "geometry": { "type": "MultiPolygon", "coordinates": [ [ [ [ 124.219446748877047, 7.350222569881121 ], [ 124.219646916913661, 7.350176466198352 ], [ 124.21965938082711, 7.35025078231353 ], [ 124.219672792379228, 7.350253620762379 ], [ 124.219957535931314, 7.349914811107072 ], [ 124.220246845661663, 7.349743355939481 ], [ 124.220528057202159, 7.349808037775036 ], [ 124.220579576767136, 7.349321714413155 ], [ 124.220802771622971, 7.347657285361206 ], [ 124.220968473216203, 7.346509341953233 ], [ 124.2206895612198, 7.346417594304555 ], [ 124.220361025139056, 7.34707130143141 ], [ 124.220557918190892, 7.347244705366792 ], [ 124.22055619595028, 7.347667091544811 ], [ 124.219871551956544, 7.349299294820422 ], [ 124.219601598425797, 7.349262825103239 ], [ 124.219446748877047, 7.350222569881121 ] ] ] ] } }
]
}
